     2              NAVIGATION DATA                         RINEX VERSION / TYPE
CCRINEXN V1.6.0 UX  CDDIS               04-MAR-17 17:31     PGM / RUN BY / DATE 
IGS BROADCAST EPHEMERIS FILE                                COMMENT             
    0.1024D-07  0.0000D+00 -0.5960D-07  0.0000D+00          ION ALPHA           
    0.9011D+05  0.0000D+00 -0.1966D+06  0.0000D+00          ION BETA            
    0.931322574615D-09 0.266453525910D-14    61440     1939 DELTA-UTC: A0,A1,T,W
    18                                                      LEAP SECONDS        
                                                            END OF HEADER       
25 17  3  3  2  0  0.0-0.345401465893D-03-0.670752342558D-11 0.000000000000D+00
    0.490000000000D+02-0.699687500000D+02 0.433053752713D-08-0.132802005519D+01
   -0.361539423466D-05 0.625027774368D-02 0.710971653462D-05 0.515362351227D+04
    0.439200000000D+06 0.208616256714D-06-0.298675435097D+01 0.130385160446D-07
    0.977886349532D+00 0.251406250000D+03 0.761017022934D+00-0.806033574534D-08
   -0.289297764699D-09 0.100000000000D+01 0.193800000000D+04 0.000000000000D+00
    0.200000000000D+01 0.000000000000D+00 0.558793544769D-08 0.490000000000D+02
    0.432018000000D+06 0.400000000000D+01 0.000000000000D+00 0.000000000000D+00
27 17  3  3  2  0  0.0 0.217925291508D-03 0.602540239925D-11 0.000000000000D+00
    0.860000000000D+02 0.104375000000D+02 0.413588656199D-08 0.265740374314D+01
    0.534579157829D-06 0.446584739257D-02 0.105593353510D-04 0.515366613197D+04
    0.439200000000D+06-0.987201929092D-07-0.194713632122D+01-0.484287738800D-07
    0.973950876072D+00 0.183375000000D+03 0.284453634419D+00-0.780532512312D-08
    0.281440294547D-09 0.100000000000D+01 0.193800000000D+04 0.000000000000D+00
    0.200000000000D+01 0.000000000000D+00 0.186264514923D-08 0.860000000000D+02
    0.432000000000D+06 0.400000000000D+01 0.000000000000D+00 0.000000000000D+00
28 17  3  3  2  0  0.0 0.593929085880D-03 0.284217094304D-11 0.000000000000D+00
    0.124000000000D+03-0.780625000000D+02 0.385516058291D-08-0.285693434377D+01
   -0.396929681301D-05 0.198871864704D-01 0.879354774952D-05 0.515364840126D+04
    0.439200000000D+06 0.333413481712D-06-0.290906322783D+01 0.201165676117D-06
    0.989159790819D+00 0.217656250000D+03-0.157330879204D+01-0.758710174753D-08
   -0.261796619166D-09 0.100000000000D+01 0.193800000000D+04 0.000000000000D+00
    0.400000000000D+01 0.000000000000D+00-0.111758708954D-07 0.124000000000D+03
    0.432000000000D+06 0.400000000000D+01 0.000000000000D+00 0.000000000000D+00
29 17  3  3  2  0  0.0 0.623103696853D-03-0.261479726760D-11 0.000000000000D+00
    0.560000000000D+02 0.437500000000D+00 0.410124226177D-08-0.155597785611D+01
    0.191852450371D-06 0.685245613567D-03 0.105313956737D-04 0.515366753578D+04
    0.439200000000D+06 0.670552253723D-07-0.188559092168D+01-0.298023223877D-07
    0.980083741725D+00 0.186687500000D+03-0.912544013407D-01-0.783746931920D-08
    0.305012705003D-09 0.100000000000D+01 0.193800000000D+04 0.000000000000D+00
    0.200000000000D+01 0.000000000000D+00-0.102445483208D-07 0.560000000000D+02
    0.432000000000D+06 0.400000000000D+01 0.000000000000D+00 0.000000000000D+00
30 17  3  3  2  0  0.0 0.160479452461D-03-0.227373675443D-12 0.000000000000D+00
    0.360000000000D+02 0.340312500000D+02 0.517342977983D-08-0.166293641678D+00
    0.180490314961D-05 0.249190547038D-02 0.327639281750D-05 0.515370561790D+04
    0.439200000000D+06 0.409781932831D-07 0.230878847623D+01-0.353902578354D-07
    0.948790159730D+00 0.308625000000D+03 0.305607776849D+01-0.871322008345D-08
    0.143934566881D-09 0.100000000000D+01 0.193800000000D+04 0.000000000000D+00
    0.200000000000D+01 0.000000000000D+00 0.372529029846D-08 0.360000000000D+02
    0.432000000000D+06 0.400000000000D+01 0.000000000000D+00 0.000000000000D+00
31 17  3  3  2  0  0.0 0.215828418732D-03-0.227373675443D-11 0.000000000000D+00
    0.700000000000D+02 0.354062500000D+02 0.469876715108D-08-0.409904768442D+00
    0.185891985893D-05 0.850528955925D-02 0.365078449249D-05 0.515365707970D+04
    0.439200000000D+06 0.428408384323D-07 0.227919523368D+01-0.763684511185D-07
    0.967791307776D+00 0.306875000000D+03-0.276768372765D+00-0.848856786864D-08
    0.194293807403D-09 0.100000000000D+01 0.193800000000D+04 0.000000000000D+00
    0.200000000000D+01 0.000000000000D+00-0.135041773319D-07 0.700000000000D+02
    0.434850000000D+06 0.400000000000D+01 0.000000000000D+00 0.000000000000D+00
32 17  3  3  2  0  0.0-0.338984187692D-03-0.133013600134D-10 0.000000000000D+00
    0.730000000000D+02 0.549687500000D+02 0.432125142604D-08-0.283684226699D+01
    0.297836959362D-05 0.836141291074D-03 0.113584101200D-04 0.515370385933D+04
    0.439200000000D+06 0.298023223877D-07 0.119238774572D+01 0.279396772385D-07
    0.958250982611D+00 0.160312500000D+03-0.278441632424D+01-0.792247285994D-08
    0.241081470582D-09 0.100000000000D+01 0.193800000000D+04 0.000000000000D+00
    0.200000000000D+01 0.000000000000D+00 0.465661287308D-09 0.730000000000D+02
    0.432000000000D+06 0.400000000000D+01 0.000000000000D+00 0.000000000000D+00
12 17  3  3  3 59 44.0 0.387524720281D-03-0.454747350886D-12 0.000000000000D+00
    0.100000000000D+02-0.709375000000D+02 0.405374028313D-08 0.270220586972D+00
   -0.376813113689D-05 0.650116673205D-02 0.804476439953D-05 0.515357486916D+04
    0.446384000000D+06 0.130385160446D-07-0.293260341861D+01 0.130385160446D-06
    0.989901379103D+00 0.244000000000D+03 0.800201355370D+00-0.802569144512D-08
   -0.337156901081D-09 0.100000000000D+01 0.193800000000D+04 0.000000000000D+00
    0.200000000000D+01 0.000000000000D+00-0.121071934700D-07 0.100000000000D+02
    0.445590000000D+06 0.400000000000D+01 0.000000000000D+00 0.000000000000D+00
14 17  3  3  3 59 44.0-0.611254945397D-04-0.159161572810D-11 0.000000000000D+00
    0.300000000000D+01 0.657812500000D+02 0.415267297550D-08-0.302922379762D+01
    0.342540442944D-05 0.873703672551D-02 0.111702829599D-04 0.515363322067D+04
    0.446384000000D+06 0.260770320892D-07 0.127563987399D+01-0.335276126862D-07
    0.962326122323D+00 0.163281250000D+03-0.195961134636D+01-0.771067832356D-08
    0.211794536378D-09 0.100000000000D+01 0.193800000000D+04 0.000000000000D+00
    0.200000000000D+01 0.000000000000D+00-0.931322574616D-08 0.300000000000D+01
    0.439200000000D+06 0.400000000000D+01 0.000000000000D+00 0.000000000000D+00
17 17  3  3  3 59 44.0-0.189352314919D-03 0.136424205266D-11 0.000000000000D+00
    0.700000000000D+01 0.124687500000D+02 0.404552565524D-08-0.272842543300D+01
    0.702217221260D-06 0.116631735582D-01 0.108573585749D-04 0.515359284973D+04
    0.446384000000D+06 0.175088644028D-06-0.189568099536D+01-0.111758708954D-07
    0.979012781824D+00 0.176687500000D+03-0.185820352113D+01-0.764388982726D-08
    0.365015204348D-09 0.100000000000D+01 0.193800000000D+04 0.000000000000D+00
    0.200000000000D+01 0.000000000000D+00-0.107102096081D-07 0.700000000000D+01
    0.445590000000D+06 0.400000000000D+01 0.000000000000D+00 0.000000000000D+00
18 17  3  3  3 59 44.0 0.602237414569D-03 0.238742359215D-11 0.000000000000D+00
    0.800000000000D+01-0.484062500000D+02 0.557344644213D-08-0.118773508399D+01
   -0.235810875893D-05 0.177082787268D-01 0.819563865662D-05 0.515374061966D+04
    0.446384000000D+06 0.279396772385D-07 0.110041246517D+00 0.450760126114D-06
    0.925865741887D+00 0.203406250000D+03-0.182823529025D+01-0.873072081242D-08
   -0.515021452711D-09 0.100000000000D+01 0.193800000000D+04 0.000000000000D+00
    0.200000000000D+01 0.000000000000D+00-0.111758708954D-07 0.800000000000D+01
    0.444906000000D+06 0.400000000000D+01 0.000000000000D+00 0.000000000000D+00
 1 17  3  3  4  0  0.0 0.504632480442D-04 0.795807864051D-12 0.000000000000D+00
    0.600000000000D+02 0.653125000000D+01 0.485091634585D-08 0.148606882078D+01
    0.460073351860D-06 0.628758664243D-02 0.548735260963D-05 0.515368899536D+04
    0.446400000000D+06-0.596046447754D-07-0.889195058201D+00 0.184401869774D-06
    0.966551837266D+00 0.277281250000D+03 0.537105005356D+00-0.841249327126D-08
    0.103218585183D-09 0.100000000000D+01 0.193800000000D+04 0.000000000000D+00
    0.200000000000D+01 0.000000000000D+00 0.512227416039D-08 0.600000000000D+02
    0.442260000000D+06 0.400000000000D+01 0.000000000000D+00 0.000000000000D+00
 2 17  3  3  4  0  0.0 0.466015655547D-03-0.693489710102D-11 0.000000000000D+00
    0.112000000000D+03 0.481250000000D+01 0.525200448135D-08 0.186767245443D+01
   -0.137835741043D-06 0.166929101106D-01 0.555254518986D-05 0.515373680878D+04
    0.446400000000D+06-0.137835741043D-06-0.940750106795D+00-0.385567545891D-06
    0.945418500750D+00 0.266531250000D+03-0.201123377404D+01-0.848678207997D-08
    0.186079179516D-09 0.100000000000D+01 0.193800000000D+04 0.000000000000D+00
    0.200000000000D+01 0.000000000000D+00-0.204890966415D-07 0.112000000000D+03
    0.443460000000D+06 0.400000000000D+01 0.000000000000D+00 0.000000000000D+00
 3 17  3  3  4  0  0.0-0.107446219772D-03 0.341060513165D-12 0.000000000000D+00
    0.410000000000D+02-0.522812500000D+02 0.462626413104D-08 0.604210969686D+00
   -0.273622572422D-05 0.485324533656D-03 0.901706516743D-05 0.515379187393D+04
    0.446400000000D+06 0.149011611938D-07 0.152835196188D+00-0.931322574616D-08
    0.960136972210D+00 0.203906250000D+03 0.343327956210D+00-0.814783939022D-08
   -0.429303596504D-09 0.100000000000D+01 0.193800000000D+04 0.000000000000D+00
    0.200000000000D+01 0.000000000000D+00 0.186264514923D-08 0.410000000000D+02
    0.440160000000D+06 0.400000000000D+01 0.000000000000D+00 0.000000000000D+00
